[{"OBJECT_NAME":"STSAT-3","OBJECT_ID":"2013-066G","EPOCH":"2026-03-09T22:41:44.680992","MEAN_MOTION":15.02088505,"ECCENTRICITY":0.0011318,"INCLINATION":97.6065,"RA_OF_ASC_NODE":40.5626,"ARG_OF_PERICENTER":13.5672,"MEAN_ANOMALY":346.5855,"EPHEMERIS_TYPE":0,"CLASSIFICATION_TYPE":"U","NORAD_CAT_ID":39422,"ELEMENT_SET_NO":999,"REV_AT_EPOCH":66930,"BSTAR":0.00035941523,"MEAN_MOTION_DOT":4.668e-5,"MEAN_MOTION_DDOT":0},{"OBJECT_NAME":"STARLINK-33897","OBJECT_ID":"2025-094B","EPOCH":"2026-03-09T21:31:28.309152","MEAN_MOTION":14.98333036,"ECCENTRICITY":0.00030947,"INCLINATION":70.0017,"RA_OF_ASC_NODE":233.9544,"ARG_OF_PERICENTER":270.6556,"MEAN_ANOMALY":89.4249,"EPHEMERIS_TYPE":0,"CLASSIFICATION_TYPE":"U","NORAD_CAT_ID":63865,"ELEMENT_SET_NO":999,"REV_AT_EPOCH":4745,"BSTAR":0.00019546056,"MEAN_MOTION_DOT":2.24e-5,"MEAN_MOTION_DDOT":0}]
